{
    "links": {
        "self": "http://www.neowsapp.com/rest/v1/neo/3755190?api_key=iIulBulltgU6a56xZRHN4H3l9WmuAYTsLGpBGhQ2"
    },
    "id": "3755190",
    "neo_reference_id": "3755190",
    "name": "(2016 NG22)",
    "designation": "2016 NG22",
    "nasa_jpl_url": "http://ssd.jpl.nasa.gov/sbdb.cgi?sstr=3755190",
    "absolute_magnitude_h": 22.5,
    "estimated_diameter": {
        "kilometers": {
            "estimated_diameter_min": 0.0840533402,
            "estimated_diameter_max": 0.1879489824
        },
        "meters": {
            "estimated_diameter_min": 84.0533402073,
            "estimated_diameter_max": 187.9489824394
        },
        "miles": {
            "estimated_diameter_min": 0.0522283081,
            "estimated_diameter_max": 0.1167860472
        },
        "feet": {
            "estimated_diameter_min": 275.7655606856,
            "estimated_diameter_max": 616.6305395464
        }
    },
    "is_potentially_hazardous_asteroid": false,
    "close_approach_data": [
        {
            "close_approach_date": "2016-07-11",
            "close_approach_date_full": "2016-Jul-11 16:29",
            "epoch_date_close_approach": 1468254540000,
            "relative_velocity": {
                "kilometers_per_second": "18.9637387382",
                "kilometers_per_hour": "68269.4594573954",
                "miles_per_hour": "42419.9871834022"
            },
            "miss_distance": {
                "astronomical": "0.0957437627",
                "lunar": "37.2443236903",
                "kilometers": "14323062.965705449",
                "miles": "8899938.6312512362"
            },
            "orbiting_body": "Earth"
        }
    ],
    "orbital_data": {
        "orbit_id": "4",
        "orbit_determination_date": "2017-04-06 08:25:06",
        "first_observation_date": "2016-07-03",
        "last_observation_date": "2016-07-11",
        "data_arc_in_days": 8,
        "observations_used": 59,
        "orbit_uncertainty": "9",
        "minimum_orbit_intersection": ".0491223",
        "jupiter_tisserand_invariant": "3.610",
        "epoch_osculation": "2457576.5",
        "eccentricity": ".69807765709652",
        "semi_major_axis": "1.888816970907804",
        "inclination": "7.552752544619781",
        "ascending_node_longitude": "263.8956883882154",
        "orbital_period": "948.1635179742822",
        "perihelion_distance": ".5702760451723383",
        "perihelion_argument": "115.712196545817",
        "aphelion_distance": "3.207357896643269",
        "perihelion_time": "2457630.793511958062",
        "mean_anomaly": "339.3857663426442",
        "mean_motion": ".3796813452273795",
        "equinox": "J2000",
        "orbit_class": {
            "orbit_class_type": "APO",
            "orbit_class_description": "Near-Earth asteroid orbits which cross the Earth’s orbit similar to that of 1862 Apollo",
            "orbit_class_range": "a (semi-major axis) > 1.0 AU; q (perihelion) < 1.017 AU"
        }
    },
    "is_sentry_object": false
}